IRIDIUM 166             
1 43570U 18061B   25181.59192612  .00000024  00000+0  14427-5 0  9995
2 43570  86.3981 203.6377 0002118  86.3851 273.7587 14.34217856363009
IRIDIUM 158             
1 43571U 18061C   25181.56021132  .00000121  00000+0  36138-4 0  9991
2 43571  86.3981 203.6609 0002440  87.9279 272.2196 14.34217420362968
IRIDIUM 165             
1 43572U 18061D   25181.51581493  .00000026  00000+0  20965-5 0  9994
2 43572  86.3983 203.7189 0002155  91.2096 268.9347 14.34217962362986
IRIDIUM 155             
1 43573U 18061E   25181.54752842  .00000097  00000+0  27745-4 0  9996
2 43573  86.3979 203.5927 0002407  84.8770 275.2700 14.34217446362966
IRIDIUM 154             
1 43574U 18061F   25181.59826876  .00000006  00000+0 -49061-5 0  9998
2 43574  86.3987 203.6870 0002165  90.2210 269.9234 14.34217728363017
IRIDIUM 163             
1 43575U 18061G   25181.57924182  .00000015  00000+0 -17348-5 0  9999
2 43575  86.3979 203.6214 0002483  90.6265 269.5215 14.34217827362988
IRIDIUM 156             
1 43576U 18061H   25181.55387128  .00000116  00000+0  34364-4 0  9998
2 43576  86.3979 203.6392 0002252  81.9673 278.1778 14.34217162362977
IRIDIUM 164             
1 43577U 18061J   25181.60461125  .00000001  00000+0 -65590-5 0  9995
2 43577  86.3986 203.6525 0001947  92.0045 268.1373 14.34217645363023
